{
"type": "FeatureCollection",
"crs": { "type": "name", "properties": { "name": "urn:ogc:def:crs:OGC:1.3:CRS84" } },
"features": [
{ "type": "Feature", "properties": { "name": "Ernie Pyle Travel Plaza (Eastbound)", "truck_parking_spaces": 50, "amenities": "Truck Parking,Overnight Parking", "public_private": "Public", "parking_area_id": 1, "Parking Type": "Public - Medium", "Size": "Medium", "index_right": 46, "county_fips": 18087, "county_name": "LaGrange County" }, "geometry": { "type": "Point", "coordinates": [ -85.329833138964375, 41.745324718466371 ] } },
{ "type": "Feature", "properties": { "name": "Marathon Gas", "truck_parking_spaces": 22, "amenities": "Truck Parking,Overnight Parking", "public_private": "Private", "parking_area_id": 4, "Parking Type": "Private - Small", "Size": "Small", "index_right": 65, "county_fips": 18153, "county_name": "Sullivan County" }, "geometry": { "type": "Point", "coordinates": [ -87.426123787641046, 39.101999055389506 ] } },
{ "type": "Feature", "properties": { "name": "Phils Truck Stop", "truck_parking_spaces": 26, "amenities": "Truck Parking,Overnight Parking,With Showers,Wi-Fi,With ATM,Pet Friendly,Transflo,RV dump,Bulk Def,Fax Scan,Tire Care", "public_private": "Private", "parking_area_id": 5, "Parking Type": "Private - Small", "Size": "Small", "index_right": 10, "county_fips": 18111, "county_name": "Newton County" }, "geometry": { "type": "Point", "coordinates": [ -87.455679140200942, 41.144142979599124 ] } },
{ "type": "Feature", "properties": { "name": "Speedway #88061", "truck_parking_spaces": 40, "amenities": "Truck Parking,Overnight Parking,With Showers,With CAT Scales,With ATM,Bulk Def,Fax Scan", "public_private": "Private", "parking_area_id": 6, "Parking Type": "Private - Small", "Size": "Small", "index_right": 31, "county_fips": 18065, "county_name": "Henry County" }, "geometry": { "type": "Point", "coordinates": [ -85.559298153053419, 39.842142074927189 ] } },
{ "type": "Feature", "properties": { "name": "Roady's All American Stores #7", "truck_parking_spaces": 30, "amenities": "Truck Parking,Overnight Parking,With Showers,Wi-Fi,With CAT Scales,With ATM,Pet Friendly,With Laundry,Bulk Def,Fax Scan", "public_private": "Private", "parking_area_id": 7, "Parking Type": "Private - Small", "Size": "Small", "index_right": 7, "county_fips": 18003, "county_name": "Allen County" }, "geometry": { "type": "Point", "coordinates": [ -85.335996122615668, 41.1254516648346 ] } },
{ "type": "Feature", "properties": { "name": "DILLSBORO MART- MOBIL", "truck_parking_spaces": 10, "amenities": "Truck Parking,Overnight Parking,With ATM,Pet Friendly,RV dump,Fax Scan", "public_private": "Private", "parking_area_id": 8, "Parking Type": "Private - Small", "Size": "Small", "index_right": 74, "county_fips": 18029, "county_name": "Dearborn County" }, "geometry": { "type": "Point", "coordinates": [ -85.101296165766314, 39.041139935293245 ] } },
{ "type": "Feature", "properties": { "name": "Speedway #87575", "truck_parking_spaces": 16, "amenities": "Overnight Parking,With ATM,Bulk Def", "public_private": "Private", "parking_area_id": 9, "Parking Type": "Private - Small", "Size": "Small", "index_right": 14, "county_fips": 18089, "county_name": "Lake County" }, "geometry": { "type": "Point", "coordinates": [ -87.316029861326953, 41.506715529276477 ] } },
{ "type": "Feature", "properties": { "name": "Rest Area NB", "truck_parking_spaces": 78, "amenities": "Truck Parking,Overnight Parking,Wi-Fi,Pet Friendly,RV dump", "public_private": "Public", "parking_area_id": 10, "Parking Type": "Public - Medium", "Size": "Medium", "index_right": 60, "county_fips": 18035, "county_name": "Delaware County" }, "geometry": { "type": "Point", "coordinates": [ -85.557251082894325, 40.354431342725995 ] } },
{ "type": "Feature", "properties": { "name": "Busler Truck Stop (Philip Busler #112 )", "truck_parking_spaces": 12, "amenities": "Truck Parking,Overnight Parking,Wi-Fi,With CAT Scales,With ATM,Transflo,RV dump,Fax Scan,Tire Care", "public_private": "Private", "parking_area_id": 12, "Parking Type": "Private - Small", "Size": "Small", "index_right": 18, "county_fips": 18129, "county_name": "Posey County" }, "geometry": { "type": "Point", "coordinates": [ -87.717435244387801, 37.942000653113865 ] } },
{ "type": "Feature", "properties": { "name": "Butler One Stop", "truck_parking_spaces": 10, "amenities": "Truck Parking,Overnight Parking,With ATM,Pet Friendly,Bulk Def,Fax Scan", "public_private": "Private", "parking_area_id": 13, "Parking Type": "Private - Small", "Size": "Small", "index_right": 71, "county_fips": 18033, "county_name": "DeKalb County" }, "geometry": { "type": "Point", "coordinates": [ -84.887461431205395, 41.430230275943522 ] } },
{ "type": "Feature", "properties": { "name": "Fuel Mart #783", "truck_parking_spaces": 20, "amenities": "Truck Parking,Overnight Parking,With Showers,Wi-Fi,With CAT Scales,With ATM,Pet Friendly,Bulk Def,Fax Scan,Tire Care", "public_private": "Private", "parking_area_id": 14, "Parking Type": "Private - Small", "Size": "Small", "index_right": 21, "county_fips": 18143, "county_name": "Scott County" }, "geometry": { "type": "Point", "coordinates": [ -85.821849650608243, 38.741870913977245 ] } },
{ "type": "Feature", "properties": { "name": "Marathon Gas", "truck_parking_spaces": 30, "amenities": "Truck Parking,Overnight Parking,Wi-Fi,With ATM,Pet Friendly,Fax Scan,Tire Care", "public_private": "Private", "parking_area_id": 15, "Parking Type": "Private - Small", "Size": "Small", "index_right": 45, "county_fips": 18043, "county_name": "Floyd County" }, "geometry": { "type": "Point", "coordinates": [ -85.912945074360309, 38.29054677771223 ] } },
{ "type": "Feature", "properties": { "name": "10 Parking Space", "truck_parking_spaces": 15, "amenities": "Truck Parking,Overnight Parking", "public_private": "Private", "parking_area_id": 16, "Parking Type": "Private - Small", "Size": "Small", "index_right": 8, "county_fips": 18099, "county_name": "Marshall County" }, "geometry": { "type": "Point", "coordinates": [ -86.308844607932713, 41.450381659394289 ] } },
{ "type": "Feature", "properties": { "name": "Wilbur Shaw Plaza", "truck_parking_spaces": 107, "amenities": "Truck Parking,Overnight Parking,Wi-Fi,With ATM,Pet Friendly,Transflo,RV dump,Fax Scan,Tire Care", "public_private": "Public", "parking_area_id": 17, "Parking Type": "Public - Large", "Size": "Large", "index_right": 16, "county_fips": 18091, "county_name": "LaPorte County" }, "geometry": { "type": "Point", "coordinates": [ -86.622859616259902, 41.707573027176807 ] } },
{ "type": "Feature", "properties": { "name": "Westville", "truck_parking_spaces": 25, "amenities": "Truck Parking,Overnight Parking,Wi-Fi,With ATM,Pet Friendly,Transflo,RV dump,Bulk Def,Fax Scan,Tire Care", "public_private": "Private", "parking_area_id": 19, "Parking Type": "Private - Small", "Size": "Small", "index_right": 16, "county_fips": 18091, "county_name": "LaPorte County" }, "geometry": { "type": "Point", "coordinates": [ -86.895775023138725, 41.534908498742219 ] } },
{ "type": "Feature", "properties": { "name": "Morningstar Truck", "truck_parking_spaces": 30, "amenities": "Truck Parking,Overnight Parking,With Showers,Wi-Fi,With ATM,Pet Friendly,Transflo,RV dump,Fax Scan,Tire Care", "public_private": "Private", "parking_area_id": 20, "Parking Type": "Private - Small", "Size": "Small", "index_right": 71, "county_fips": 18033, "county_name": "DeKalb County" }, "geometry": { "type": "Point", "coordinates": [ -85.062548355090854, 41.440387572295535 ] } },
{ "type": "Feature", "properties": { "name": "Warren Travel Plaza", "truck_parking_spaces": 100, "amenities": "Truck Parking,Overnight Parking,With Showers,With CAT Scales,With ATM,With Laundry,Bulk Def,Tire Care", "public_private": "Private", "parking_area_id": 21, "Parking Type": "Private - Large", "Size": "Large", "index_right": 5, "county_fips": 18069, "county_name": "Huntington County" }, "geometry": { "type": "Point", "coordinates": [ -85.438641261326197, 40.722245687990906 ] } },
{ "type": "Feature", "properties": { "name": "Rest Area WB", "truck_parking_spaces": 30, "amenities": "Truck Parking,Overnight Parking,Wi-Fi,Pet Friendly,RV dump", "public_private": "Public", "parking_area_id": 22, "Parking Type": "Public - Small", "Size": "Small", "index_right": 90, "county_fips": 18063, "county_name": "Hendricks County" }, "geometry": { "type": "Point", "coordinates": [ -86.554456835300073, 39.901155574076682 ] } },
{ "type": "Feature", "properties": { "name": "Rest Area NB", "truck_parking_spaces": 52, "amenities": "Truck Parking,Overnight Parking,Wi-Fi,Pet Friendly,RV dump", "public_private": "Public", "parking_area_id": 23, "Parking Type": "Public - Medium", "Size": "Medium", "index_right": 51, "county_fips": 18019, "county_name": "Clark County" }, "geometry": { "type": "Point", "coordinates": [ -85.776573682482478, 38.584800471437966 ] } },
{ "type": "Feature", "properties": { "name": "Welcome Center WB", "truck_parking_spaces": 26, "amenities": "Truck Parking,Overnight Parking,Wi-Fi,Pet Friendly,RV dump", "public_private": "Public", "parking_area_id": 24, "Parking Type": "Public - Small", "Size": "Small", "index_right": 16, "county_fips": 18091, "county_name": "LaPorte County" }, "geometry": { "type": "Point", "coordinates": [ -86.793889701380834, 41.735364755430453 ] } },
{ "type": "Feature", "properties": { "name": "Rest Area EB", "truck_parking_spaces": 44, "amenities": "Truck Parking,Overnight Parking,Wi-Fi,Pet Friendly", "public_private": "Public", "parking_area_id": 26, "Parking Type": "Public - Small", "Size": "Small", "index_right": 30, "county_fips": 18165, "county_name": "Vermillion County" }, "geometry": { "type": "Point", "coordinates": [ -87.505088542928632, 40.116111246207659 ] } },
{ "type": "Feature", "properties": { "name": "Indiana Welcome Center Rest Area", "truck_parking_spaces": 156, "amenities": "Truck Parking,Overnight Parking,Pet Friendly", "public_private": "Public", "parking_area_id": 28, "Parking Type": "Public - Large", "Size": "Large", "index_right": 77, "county_fips": 18177, "county_name": "Wayne County" }, "geometry": { "type": "Point", "coordinates": [ -85.025915579428386, 39.861001281751719 ] } },
{ "type": "Feature", "properties": { "name": "EB Rest Area", "truck_parking_spaces": 31, "amenities": "Truck Parking,Overnight Parking,Wi-Fi,Pet Friendly", "public_private": "Public", "parking_area_id": 29, "Parking Type": "Public - Small", "Size": "Small", "index_right": 90, "county_fips": 18063, "county_name": "Hendricks County" }, "geometry": { "type": "Point", "coordinates": [ -86.55481221279716, 39.899972711878249 ] } },
{ "type": "Feature", "properties": { "name": "Welcome Center WB", "truck_parking_spaces": 40, "amenities": "Truck Parking,Overnight Parking,Wi-Fi,Pet Friendly,RV dump", "public_private": "Public", "parking_area_id": 30, "Parking Type": "Public - Small", "Size": "Small", "index_right": 22, "county_fips": 18137, "county_name": "Ripley County" }, "geometry": { "type": "Point", "coordinates": [ -85.168987964395356, 39.289744877824631 ] } },
{ "type": "Feature", "properties": { "name": "Rest area", "truck_parking_spaces": 83, "amenities": "Truck Parking,Overnight Parking,Wi-Fi,Pet Friendly,RV dump", "public_private": "Public", "parking_area_id": 33, "Parking Type": "Public - Medium", "Size": "Medium", "index_right": 71, "county_fips": 18033, "county_name": "DeKalb County" }, "geometry": { "type": "Point", "coordinates": [ -85.085808118782907, 41.29620579742349 ] } },
{ "type": "Feature", "properties": { "name": "Greenfield Rest Area EastBound", "truck_parking_spaces": 198, "amenities": "Truck Parking,Overnight Parking,Wi-Fi,Pet Friendly,RV dump", "public_private": "Public", "parking_area_id": 34, "Parking Type": "Public - Large", "Size": "Large", "index_right": 40, "county_fips": 18059, "county_name": "Hancock County" }, "geometry": { "type": "Point", "coordinates": [ -85.704266981698538, 39.823556003294804 ] } },
{ "type": "Feature", "properties": { "name": "Rest Area WB", "truck_parking_spaces": 95, "amenities": "Truck Parking,Overnight Parking,Wi-Fi,Pet Friendly,RV dump", "public_private": "Public", "parking_area_id": 35, "Parking Type": "Public - Medium", "Size": "Medium", "index_right": 40, "county_fips": 18059, "county_name": "Hancock County" }, "geometry": { "type": "Point", "coordinates": [ -85.703590595428267, 39.826780531099672 ] } },
{ "type": "Feature", "properties": { "name": "Good Oil Company", "truck_parking_spaces": 25, "amenities": "Truck Parking,Overnight Parking,Wi-Fi,With CAT Scales,With ATM,Pet Friendly,Transflo,RV dump,Bulk Def,Fax Scan,Tire Care", "public_private": "Private", "parking_area_id": 36, "Parking Type": "Private - Small", "Size": "Small", "index_right": 49, "county_fips": 18131, "county_name": "Pulaski County" }, "geometry": { "type": "Point", "coordinates": [ -86.604868840899243, 41.072929972954547 ] } },
{ "type": "Feature", "properties": { "name": "Sunoco Gas Station", "truck_parking_spaces": 20, "amenities": "Truck Parking,Overnight Parking,With Showers,Wi-Fi,With ATM,Pet Friendly,RV dump,Fax Scan,Tire Care", "public_private": "Private", "parking_area_id": 37, "Parking Type": "Private - Small", "Size": "Small", "index_right": 20, "county_fips": 18037, "county_name": "Dubois County" }, "geometry": { "type": "Point", "coordinates": [ -86.94086986080076, 38.364035065480394 ] } },
{ "type": "Feature", "properties": { "name": "Chuckles #27", "truck_parking_spaces": 15, "amenities": "Truck Parking,Overnight Parking,Wi-Fi,With CAT Scales,With ATM,Pet Friendly,RV dump,Fax Scan,Tire Care", "public_private": "Private", "parking_area_id": 38, "Parking Type": "Private - Small", "Size": "Small", "index_right": 70, "county_fips": 18027, "county_name": "Daviess County" }, "geometry": { "type": "Point", "coordinates": [ -87.179030837478365, 38.630735291666284 ] } },
{ "type": "Feature", "properties": { "name": "Gasoline Alley #4", "truck_parking_spaces": 8, "amenities": "Truck Parking,Overnight Parking,Wi-Fi,With CAT Scales,With ATM,Transflo,RV dump,Fax Scan,Tire Care", "public_private": "Private", "parking_area_id": 39, "Parking Type": "Private - Small", "Size": "Small", "index_right": 91, "county_fips": 18093, "county_name": "Lawrence County" }, "geometry": { "type": "Point", "coordinates": [ -86.491873503775452, 38.735251338152388 ] } },
{ "type": "Feature", "properties": { "name": "Worthington Food Mart", "truck_parking_spaces": 18, "amenities": "Truck Parking,Overnight Parking,Wi-Fi,With ATM,Pet Friendly,Transflo,RV dump,Fax Scan,Tire Care", "public_private": "Private", "parking_area_id": 40, "Parking Type": "Private - Small", "Size": "Small", "index_right": 34, "county_fips": 18055, "county_name": "Greene County" }, "geometry": { "type": "Point", "coordinates": [ -86.984707074229377, 39.109519310689805 ] } },
{ "type": "Feature", "properties": { "name": "Tobacco Road #92", "truck_parking_spaces": 15, "amenities": "Truck Parking,Overnight Parking,Wi-Fi,With ATM,Pet Friendly,Transflo,RV dump,Fax Scan", "public_private": "Private", "parking_area_id": 41, "Parking Type": "Private - Small", "Size": "Small", "index_right": 48, "county_fips": 18083, "county_name": "Knox County" }, "geometry": { "type": "Point", "coordinates": [ -87.549429075696224, 38.517284694336489 ] } },
{ "type": "Feature", "properties": { "name": "Kennett Truck Stop / Howie’s Diner", "truck_parking_spaces": 75, "amenities": "Truck Parking,Overnight Parking,Wi-Fi,With CAT Scales,With ATM,Pet Friendly,Bulk Def,Fax Scan,Tire Care", "public_private": "Private", "parking_area_id": 42, "Parking Type": "Private - Medium", "Size": "Medium", "index_right": 74, "county_fips": 18029, "county_name": "Dearborn County" }, "geometry": { "type": "Point", "coordinates": [ -84.851650568863974, 39.119935833248896 ] } },
{ "type": "Feature", "properties": { "name": "Mini Mart", "truck_parking_spaces": 40, "amenities": "Truck Parking,Overnight Parking,With Showers,Wi-Fi,With CAT Scales,With ATM,Transflo,RV dump,Fax Scan,Tire Care", "public_private": "Private", "parking_area_id": 43, "Parking Type": "Private - Small", "Size": "Small", "index_right": 31, "county_fips": 18065, "county_name": "Henry County" }, "geometry": { "type": "Point", "coordinates": [ -85.261565163856261, 39.848374609233126 ] } },
{ "type": "Feature", "properties": { "name": "FuelMaster - AMBEST", "truck_parking_spaces": 75, "amenities": "Truck Parking,Overnight Parking,With Showers,Wi-Fi,With CAT Scales,With ATM,Pet Friendly,With Laundry,Transflo,Bulk Def,Fax Scan,Tire Care", "public_private": "Private", "parking_area_id": 44, "Parking Type": "Private - Medium", "Size": "Medium", "index_right": 77, "county_fips": 18177, "county_name": "Wayne County" }, "geometry": { "type": "Point", "coordinates": [ -85.145702858547125, 39.848777521702203 ] } },
{ "type": "Feature", "properties": { "name": "CIRCLE K - SHELBYVILLE", "truck_parking_spaces": 8, "amenities": "Truck Parking,Overnight Parking,Wi-Fi,With ATM,Pet Friendly,RV dump,Fax Scan,Tire Care", "public_private": "Private", "parking_area_id": 45, "Parking Type": "Private - Small", "Size": "Small", "index_right": 78, "county_fips": 18145, "county_name": "Shelby County" }, "geometry": { "type": "Point", "coordinates": [ -85.733283597511502, 39.527019220405606 ] } },
{ "type": "Feature", "properties": { "name": "Little Point Auto & Truck Stop", "truck_parking_spaces": 50, "amenities": "Truck Parking,Overnight Parking,Wi-Fi,With ATM,Pet Friendly,Transflo,RV dump,Tire Care", "public_private": "Private", "parking_area_id": 46, "Parking Type": "Private - Medium", "Size": "Medium", "index_right": 52, "county_fips": 18109, "county_name": "Morgan County" }, "geometry": { "type": "Point", "coordinates": [ -86.632995332178254, 39.567412841120003 ] } },
{ "type": "Feature", "properties": { "name": "Cloverdale Kitchen Travel Plaza", "truck_parking_spaces": 90, "amenities": "Truck Parking,Overnight Parking,With Showers,Wi-Fi,With ATM,Pet Friendly,With Laundry,Bulk Def,Fax Scan,Tire Care", "public_private": "Private", "parking_area_id": 47, "Parking Type": "Private - Medium", "Size": "Medium", "index_right": 82, "county_fips": 18133, "county_name": "Putnam County" }, "geometry": { "type": "Point", "coordinates": [ -86.80411173387705, 39.530419224073462 ] } },
{ "type": "Feature", "properties": { "name": "Flying Saucer Fuel Stop", "truck_parking_spaces": 30, "amenities": "Truck Parking,Overnight Parking,Wi-Fi,With ATM,Pet Friendly,Transflo,RV dump,Fax Scan,Tire Care", "public_private": "Private", "parking_area_id": 48, "Parking Type": "Private - Small", "Size": "Small", "index_right": 41, "county_fips": 18135, "county_name": "Randolph County" }, "geometry": { "type": "Point", "coordinates": [ -84.941455383520605, 40.054382426132662 ] } },
{ "type": "Feature", "properties": { "name": "Falcon Mart", "truck_parking_spaces": 35, "amenities": "Truck Parking,Overnight Parking,Wi-Fi,With ATM,Pet Friendly,Transflo,RV dump,Fax Scan,Tire Care", "public_private": "Private", "parking_area_id": 49, "Parking Type": "Private - Small", "Size": "Small", "index_right": 30, "county_fips": 18165, "county_name": "Vermillion County" }, "geometry": { "type": "Point", "coordinates": [ -87.453228596760525, 39.951659067715127 ] } },
{ "type": "Feature", "properties": { "name": "Mcclure Oil #52", "truck_parking_spaces": 50, "amenities": "Truck Parking,Overnight Parking,With Showers,Wi-Fi,With ATM,Pet Friendly,RV dump,Fax Scan,Tire Care", "public_private": "Private", "parking_area_id": 50, "Parking Type": "Private - Medium", "Size": "Medium", "index_right": 63, "county_fips": 18011, "county_name": "Boone County" }, "geometry": { "type": "Point", "coordinates": [ -86.492179371090529, 40.048001454499854 ] } },
{ "type": "Feature", "properties": { "name": "Circle K 2408 - Lafayette - AMBEST", "truck_parking_spaces": 13, "amenities": "Truck Parking,Overnight Parking,Wi-Fi,With ATM,Pet Friendly,RV dump,Bulk Def,Fax Scan", "public_private": "Private", "parking_area_id": 51, "Parking Type": "Private - Small", "Size": "Small", "index_right": 15, "county_fips": 18157, "county_name": "Tippecanoe County" }, "geometry": { "type": "Point", "coordinates": [ -86.779459702387641, 40.373638494240261 ] } },
{ "type": "Feature", "properties": { "name": "Family Express #47 Citgo", "truck_parking_spaces": 24, "amenities": "Truck Parking,Overnight Parking,Wi-Fi,With CAT Scales,With ATM,Transflo,RV dump,Fax Scan,Tire Care", "public_private": "Private", "parking_area_id": 52, "Parking Type": "Private - Small", "Size": "Small", "index_right": 0, "county_fips": 18073, "county_name": "Jasper County" }, "geometry": { "type": "Point", "coordinates": [ -87.125017548431046, 40.765225505682466 ] } },
{ "type": "Feature", "properties": { "name": "Pak-a-Sak", "truck_parking_spaces": 30, "amenities": "Truck Parking,Overnight Parking,Wi-Fi,With ATM,Pet Friendly,Transflo,RV dump,Fax Scan,Tire Care", "public_private": "Private", "parking_area_id": 53, "Parking Type": "Private - Small", "Size": "Small", "index_right": 64, "county_fips": 18075, "county_name": "Jay County" }, "geometry": { "type": "Point", "coordinates": [ -84.965554512372648, 40.540593994639437 ] } },
{ "type": "Feature", "properties": { "name": "McClure/Decatur Travel", "truck_parking_spaces": 30, "amenities": "Truck Parking,Overnight Parking,With Showers,Wi-Fi,With CAT Scales,With ATM,Pet Friendly,RV dump,Fax Scan,Tire Care", "public_private": "Private", "parking_area_id": 54, "Parking Type": "Private - Small", "Size": "Small", "index_right": 87, "county_fips": 18001, "county_name": "Adams County" }, "geometry": { "type": "Point", "coordinates": [ -84.938950405691557, 40.814305660505262 ] } },
{ "type": "Feature", "properties": { "name": "Paradise Auto Truck Plaza Inc", "truck_parking_spaces": 50, "amenities": "Truck Parking,Overnight Parking,With Showers,Wi-Fi,With ATM,Pet Friendly,RV dump,Fax Scan", "public_private": "Private", "parking_area_id": 55, "Parking Type": "Private - Medium", "Size": "Medium", "index_right": 32, "county_fips": 18049, "county_name": "Fulton County" }, "geometry": { "type": "Point", "coordinates": [ -86.231758623164467, 41.047268506366152 ] } },
{ "type": "Feature", "properties": { "name": "Family Express #35", "truck_parking_spaces": 20, "amenities": "Truck Parking,Overnight Parking,Wi-Fi,With ATM,Pet Friendly,Transflo,RV dump,Fax Scan,Tire Care", "public_private": "Private", "parking_area_id": 56, "Parking Type": "Private - Small", "Size": "Small", "index_right": 0, "county_fips": 18073, "county_name": "Jasper County" }, "geometry": { "type": "Point", "coordinates": [ -87.214942110162227, 40.940061944655774 ] } },
{ "type": "Feature", "properties": { "name": "Knoll Bros. Retail #3", "truck_parking_spaces": 15, "amenities": "Truck Parking,Overnight Parking,With Showers,Wi-Fi,With ATM,Pet Friendly,Transflo,RV dump,Fax Scan,Tire Care", "public_private": "Private", "parking_area_id": 57, "Parking Type": "Private - Small", "Size": "Small", "index_right": 55, "county_fips": 18149, "county_name": "Starke County" }, "geometry": { "type": "Point", "coordinates": [ -86.69284998209983, 41.399688360379223 ] } },
{ "type": "Feature", "properties": { "name": "Phil's One Stop #06", "truck_parking_spaces": 8, "amenities": "Truck Parking,Overnight Parking,With ATM,Pet Friendly,Bulk Def", "public_private": "Private", "parking_area_id": 58, "Parking Type": "Private - Small", "Size": "Small", "index_right": 7, "county_fips": 18003, "county_name": "Allen County" }, "geometry": { "type": "Point", "coordinates": [ -85.198813475738731, 41.131529022146864 ] } },
{ "type": "Feature", "properties": { "name": "George Ade Travel Plaza", "truck_parking_spaces": 60, "amenities": "Truck Parking,Overnight Parking,Wi-Fi,With CAT Scales,With ATM,RV dump,Fax Scan,Tire Care", "public_private": "Public", "parking_area_id": 59, "Parking Type": "Public - Medium", "Size": "Medium", "index_right": 33, "county_fips": 18127, "county_name": "Porter County" }, "geometry": { "type": "Point", "coordinates": [ -87.217399256653721, 41.587058140467136 ] } },
{ "type": "Feature", "properties": { "name": "Grovetown Truck Plaza", "truck_parking_spaces": 50, "amenities": "Truck Parking,Overnight Parking,With Showers,Wi-Fi,With CAT Scales,With ATM,Pet Friendly,With Laundry,RV dump,Bulk Def,Fax Scan,Tire Care", "public_private": "Private", "parking_area_id": 60, "Parking Type": "Private - Medium", "Size": "Medium", "index_right": 55, "county_fips": 18149, "county_name": "Starke County" }, "geometry": { "type": "Point", "coordinates": [ -86.491752637520165, 41.370076978262539 ] } },
{ "type": "Feature", "properties": { "name": "J.T. McCutcheon Travel Plaza", "truck_parking_spaces": 52, "amenities": "Truck Parking,Overnight Parking,Wi-Fi,With CAT Scales,With ATM,Pet Friendly,Transflo,RV dump,Fax Scan,Tire Care", "public_private": "Public", "parking_area_id": 61, "Parking Type": "Public - Medium", "Size": "Medium", "index_right": 33, "county_fips": 18127, "county_name": "Porter County" }, "geometry": { "type": "Point", "coordinates": [ -87.216496933201512, 41.58860118551182 ] } },
{ "type": "Feature", "properties": { "name": "Speedway #86666", "truck_parking_spaces": 15, "amenities": "Overnight Parking,With ATM,Bulk Def", "public_private": "Private", "parking_area_id": 62, "Parking Type": "Private - Small", "Size": "Small", "index_right": 44, "county_fips": 18039, "county_name": "Elkhart County" }, "geometry": { "type": "Point", "coordinates": [ -85.797584577900025, 41.562702577022598 ] } },
{ "type": "Feature", "properties": { "name": "Speedway #86674", "truck_parking_spaces": 18, "amenities": "Overnight Parking,With ATM,Bulk Def", "public_private": "Private", "parking_area_id": 63, "Parking Type": "Private - Small", "Size": "Small", "index_right": 54, "county_fips": 18141, "county_name": "St. Joseph County" }, "geometry": { "type": "Point", "coordinates": [ -86.334300172578907, 41.737958061156988 ] } },
{ "type": "Feature", "properties": { "name": "Love's Truck Care #391", "truck_parking_spaces": 69, "amenities": "Truck Parking,Overnight Parking,With Showers,Wi-Fi,With CAT Scales,With ATM,Pet Friendly,Transflo,Bulk Def,Fax Scan,Tire Care", "public_private": "Private", "parking_area_id": 66, "Parking Type": "Private - Medium", "Size": "Medium", "index_right": 19, "county_fips": 18031, "county_name": "Decatur County" }, "geometry": { "type": "Point", "coordinates": [ -85.625750466360088, 39.45028140483592 ] } },
{ "type": "Feature", "properties": { "name": "Johnny's", "truck_parking_spaces": 25, "amenities": "Truck Parking,Overnight Parking,Wi-Fi,With CAT Scales,With ATM,Pet Friendly,Transflo,Fax Scan,Tire Care", "public_private": "Private", "parking_area_id": 67, "Parking Type": "Private - Small", "Size": "Small", "index_right": 1, "county_fips": 18151, "county_name": "Steuben County" }, "geometry": { "type": "Point", "coordinates": [ -85.00132668714599, 41.743696753064988 ] } },
{ "type": "Feature", "properties": { "name": "Gallops - Middlebury - AMBEST", "truck_parking_spaces": 15, "amenities": "Truck Parking,Overnight Parking,Wi-Fi,With ATM,Pet Friendly,RV dump,Fax Scan,Tire Care", "public_private": "Private", "parking_area_id": 68, "Parking Type": "Private - Small", "Size": "Small", "index_right": 44, "county_fips": 18039, "county_name": "Elkhart County" }, "geometry": { "type": "Point", "coordinates": [ -85.677448547696841, 41.755593404941919 ] } },
{ "type": "Feature", "properties": { "name": "Howe Travel Plaza WB", "truck_parking_spaces": 45, "amenities": "Truck Parking,Overnight Parking,Wi-Fi,With CAT Scales,With ATM,Pet Friendly,Transflo,RV dump,Fax Scan", "public_private": "Public", "parking_area_id": 69, "Parking Type": "Public - Small", "Size": "Small", "index_right": 46, "county_fips": 18087, "county_name": "LaGrange County" }, "geometry": { "type": "Point", "coordinates": [ -85.328734755252071, 41.746817489366165 ] } },
{ "type": "Feature", "properties": { "name": "Rest Area SB", "truck_parking_spaces": 47, "amenities": "Truck Parking,Overnight Parking,Wi-Fi,Pet Friendly", "public_private": "Public", "parking_area_id": 70, "Parking Type": "Public - Small", "Size": "Small", "index_right": 1, "county_fips": 18151, "county_name": "Steuben County" }, "geometry": { "type": "Point", "coordinates": [ -85.059557401647226, 41.580236767288781 ] } },
{ "type": "Feature", "properties": { "name": "Love's Truck Care #254", "truck_parking_spaces": 90, "amenities": "Truck Parking,Overnight Parking,With Showers,Wi-Fi,With CAT Scales,With ATM,Pet Friendly,With Laundry,Transflo,Bulk Def,Fax Scan,Tire Care", "public_private": "Private", "parking_area_id": 71, "Parking Type": "Private - Medium", "Size": "Medium", "index_right": 90, "county_fips": 18063, "county_name": "Hendricks County" }, "geometry": { "type": "Point", "coordinates": [ -86.47816946456372, 39.615865465501209 ] } },
{ "type": "Feature", "properties": { "name": "Roselawn Rest Area", "truck_parking_spaces": 148, "amenities": "Overnight Parking,Pet Friendly", "public_private": "Public", "parking_area_id": 72, "Parking Type": "Public - Large", "Size": "Large", "index_right": 0, "county_fips": 18073, "county_name": "Jasper County" }, "geometry": { "type": "Point", "coordinates": [ -87.274207952640495, 41.165362713400334 ] } },
{ "type": "Feature", "properties": { "name": "Fort Wayne Truck Plaza", "truck_parking_spaces": 150, "amenities": "Truck Parking,Overnight Parking,Wi-Fi,With CAT Scales,Tire Care", "public_private": "Private", "parking_area_id": 73, "Parking Type": "Private - Large", "Size": "Large", "index_right": 7, "county_fips": 18003, "county_name": "Allen County" }, "geometry": { "type": "Point", "coordinates": [ -85.184873522684256, 41.118709468947507 ] } },
{ "type": "Feature", "properties": { "name": "Love’s Travel Stops", "truck_parking_spaces": 150, "amenities": "Truck Parking,Overnight Parking,With Showers,Wi-Fi,With CAT Scales,With ATM,Pet Friendly,With Laundry,Transflo,Bulk Def,Fax Scan,Tire Care", "public_private": "Private", "parking_area_id": 74, "Parking Type": "Private - Large", "Size": "Large", "index_right": 14, "county_fips": 18089, "county_name": "Lake County" }, "geometry": { "type": "Point", "coordinates": [ -87.357508647783035, 41.562488859549781 ] } },
{ "type": "Feature", "properties": { "name": "Love's Truck Care #222", "truck_parking_spaces": 130, "amenities": "Truck Parking,Overnight Parking,With Showers,Wi-Fi,With CAT Scales,With ATM,Pet Friendly,Transflo,RV dump,Bulk Def,Fax Scan,Tire Care", "public_private": "Private", "parking_area_id": 75, "Parking Type": "Private - Large", "Size": "Large", "index_right": 77, "county_fips": 18177, "county_name": "Wayne County" }, "geometry": { "type": "Point", "coordinates": [ -84.932980801554336, 39.870490108980505 ] } },
{ "type": "Feature", "properties": { "name": "Love's Truck Care #355", "truck_parking_spaces": 220, "amenities": "Truck Parking,Overnight Parking,With Showers,Wi-Fi,With CAT Scales,With ATM,Pet Friendly,With Laundry,Transflo,Bulk Def,Fax Scan,Tire Care", "public_private": "Private", "parking_area_id": 76, "Parking Type": "Private - Large", "Size": "Large", "index_right": 51, "county_fips": 18019, "county_name": "Clark County" }, "geometry": { "type": "Point", "coordinates": [ -85.769196797433025, 38.490668829694457 ] } },
{ "type": "Feature", "properties": { "name": "Spiceland Truck & Auto Plaza", "truck_parking_spaces": 50, "amenities": "Truck Parking,Overnight Parking,With Showers,Wi-Fi,With ATM,Pet Friendly,With Laundry,Bulk Def,Fax Scan,Tire Care", "public_private": "Private", "parking_area_id": 77, "Parking Type": "Private - Medium", "Size": "Medium", "index_right": 31, "county_fips": 18065, "county_name": "Henry County" }, "geometry": { "type": "Point", "coordinates": [ -85.420100783698842, 39.848418573810427 ] } },
{ "type": "Feature", "properties": { "name": "Love's Truck Care #394", "truck_parking_spaces": 120, "amenities": "Truck Parking,Overnight Parking,With Showers,Wi-Fi,With CAT Scales,With ATM,Pet Friendly,With Laundry,Transflo,Bulk Def,Fax Scan,Tire Care", "public_private": "Private", "parking_area_id": 78, "Parking Type": "Private - Large", "Size": "Large", "index_right": 0, "county_fips": 18073, "county_name": "Jasper County" }, "geometry": { "type": "Point", "coordinates": [ -87.26154600106652, 41.143423103221842 ] } },
{ "type": "Feature", "properties": { "name": "Love's Truck Care #551", "truck_parking_spaces": 120, "amenities": "Truck Parking,Overnight Parking,With Showers,Wi-Fi,With CAT Scales,With ATM,Pet Friendly,Transflo,RV dump,Bulk Def,Fax Scan,Tire Care", "public_private": "Private", "parking_area_id": 79, "Parking Type": "Private - Large", "Size": "Large", "index_right": 1, "county_fips": 18151, "county_name": "Steuben County" }, "geometry": { "type": "Point", "coordinates": [ -85.050598091350921, 41.633209763404388 ] } },
{ "type": "Feature", "properties": { "name": "Flying J Travel Center", "truck_parking_spaces": 250, "amenities": "Overnight Parking,Pet Friendly,Fax Scan,Tire Care", "public_private": "Private", "parking_area_id": 80, "Parking Type": "Private - Large", "Size": "Large", "index_right": 14, "county_fips": 18089, "county_name": "Lake County" }, "geometry": { "type": "Point", "coordinates": [ -87.293989674361882, 41.287249831296585 ] } },
{ "type": "Feature", "properties": { "name": "Howe Travel Plaza", "truck_parking_spaces": 15, "amenities": "Truck Parking,Overnight Parking,Wi-Fi,Fax Scan", "public_private": "Private", "parking_area_id": 81, "Parking Type": "Private - Small", "Size": "Small", "index_right": 46, "county_fips": 18087, "county_name": "LaGrange County" }, "geometry": { "type": "Point", "coordinates": [ -85.428353901298422, 41.751166739097016 ] } },
{ "type": "Feature", "properties": { "name": "Love's Truck Care #459", "truck_parking_spaces": 90, "amenities": "Truck Parking,Overnight Parking,With Showers,Wi-Fi,With CAT Scales,With ATM,Pet Friendly,With Laundry,Transflo,Bulk Def,Fax Scan,Tire Care", "public_private": "Private", "parking_area_id": 82, "Parking Type": "Private - Medium", "Size": "Medium", "index_right": 63, "county_fips": 18011, "county_name": "Boone County" }, "geometry": { "type": "Point", "coordinates": [ -86.39596091723503, 39.97895181381115 ] } },
{ "type": "Feature", "properties": { "name": "George Craig Plaza", "truck_parking_spaces": 70, "amenities": "Truck Parking,Overnight Parking,With ATM", "public_private": "Public", "parking_area_id": 83, "Parking Type": "Public - Medium", "Size": "Medium", "index_right": 44, "county_fips": 18039, "county_name": "Elkhart County" }, "geometry": { "type": "Point", "coordinates": [ -86.004965671197141, 41.731424831265933 ] } },
{ "type": "Feature", "properties": { "name": "Travel Plaza 3, MP 56 Eastbound - Rolling Prairie", "truck_parking_spaces": 80, "amenities": "Truck Parking,Overnight Parking,Wi-Fi,Pet Friendly", "public_private": "Public", "parking_area_id": 84, "Parking Type": "Public - Medium", "Size": "Medium", "index_right": 16, "county_fips": 18091, "county_name": "LaPorte County" }, "geometry": { "type": "Point", "coordinates": [ -86.622294866880239, 41.705302808210078 ] } },
{ "type": "Feature", "properties": { "name": "Love's Truck Care #323", "truck_parking_spaces": 64, "amenities": "Truck Parking,Overnight Parking,With Showers,Wi-Fi,With CAT Scales,With ATM,Pet Friendly,With Laundry,Transflo,RV dump,Bulk Def,Fax Scan", "public_private": "Private", "parking_area_id": 85, "Parking Type": "Private - Medium", "Size": "Medium", "index_right": 53, "county_fips": 18053, "county_name": "Grant County" }, "geometry": { "type": "Point", "coordinates": [ -85.548859904267914, 40.554627440999724 ] } },
{ "type": "Feature", "properties": { "name": "CIRCLE K - SHELBYVILLE", "truck_parking_spaces": 14, "amenities": "Truck Parking,Overnight Parking,With ATM,Bulk Def", "public_private": "Private", "parking_area_id": 86, "Parking Type": "Private - Small", "Size": "Small", "index_right": 78, "county_fips": 18145, "county_name": "Shelby County" }, "geometry": { "type": "Point", "coordinates": [ -85.777907574785658, 39.533406053265935 ] } },
{ "type": "Feature", "properties": { "name": "Speedway", "truck_parking_spaces": 8, "amenities": "Truck Parking,Overnight Parking,With ATM", "public_private": "Private", "parking_area_id": 87, "Parking Type": "Private - Small", "Size": "Small", "index_right": 14, "county_fips": 18089, "county_name": "Lake County" }, "geometry": { "type": "Point", "coordinates": [ -87.512619357508953, 41.492769012690964 ] } },
{ "type": "Feature", "properties": { "name": "Speedway #86748", "truck_parking_spaces": 20, "amenities": "Overnight Parking,With Showers,With CAT Scales,With ATM,Bulk Def,Fax Scan", "public_private": "Private", "parking_area_id": 88, "Parking Type": "Private - Small", "Size": "Small", "index_right": 16, "county_fips": 18091, "county_name": "LaPorte County" }, "geometry": { "type": "Point", "coordinates": [ -86.895200595820071, 41.649226838565077 ] } },
{ "type": "Feature", "properties": { "name": "SNAPPY FOOD MART III", "truck_parking_spaces": 7, "amenities": "Truck Parking,Overnight Parking", "public_private": "Private", "parking_area_id": 89, "Parking Type": "Private - Small", "Size": "Small", "index_right": 44, "county_fips": 18039, "county_name": "Elkhart County" }, "geometry": { "type": "Point", "coordinates": [ -85.684630908133386, 41.725286155853446 ] } },
{ "type": "Feature", "properties": { "name": "Gallops - Michigan City - AMBEST", "truck_parking_spaces": 30, "amenities": "Truck Parking,Overnight Parking,With Showers,Wi-Fi,With CAT Scales,With ATM,Pet Friendly,Transflo,RV dump,Bulk Def,Fax Scan,Tire Care", "public_private": "Private", "parking_area_id": 90, "Parking Type": "Private - Small", "Size": "Small", "index_right": 16, "county_fips": 18091, "county_name": "LaPorte County" }, "geometry": { "type": "Point", "coordinates": [ -86.931601382265029, 41.68139693368127 ] } },
{ "type": "Feature", "properties": { "name": "Flying J Travel Center", "truck_parking_spaces": 100, "amenities": "Overnight Parking,Pet Friendly,Fax Scan,Tire Care", "public_private": "Private", "parking_area_id": 91, "Parking Type": "Private - Large", "Size": "Large", "index_right": 83, "county_fips": 18097, "county_name": "Marion County" }, "geometry": { "type": "Point", "coordinates": [ -86.19146205583931, 39.693418756929553 ] } },
{ "type": "Feature", "properties": { "name": "McClure", "truck_parking_spaces": 15, "amenities": "Truck Parking,Overnight Parking,With Showers,Pet Friendly,Fax Scan,Tire Care", "public_private": "Private", "parking_area_id": 92, "Parking Type": "Private - Small", "Size": "Small", "index_right": 53, "county_fips": 18053, "county_name": "Grant County" }, "geometry": { "type": "Point", "coordinates": [ -85.550784797360294, 40.479700970503551 ] } },
{ "type": "Feature", "properties": { "name": "Flying J Travel Center", "truck_parking_spaces": 200, "amenities": "Overnight Parking,Pet Friendly,Fax Scan,Tire Care", "public_private": "Private", "parking_area_id": 93, "Parking Type": "Private - Large", "Size": "Large", "index_right": 14, "county_fips": 18089, "county_name": "Lake County" }, "geometry": { "type": "Point", "coordinates": [ -87.236735329870854, 41.586887558727895 ] } },
{ "type": "Feature", "properties": { "name": "Remington Truck Stop", "truck_parking_spaces": 100, "amenities": "Truck Parking,Overnight Parking,With Showers,Wi-Fi,With ATM,Pet Friendly,Bulk Def,Fax Scan", "public_private": "Private", "parking_area_id": 94, "Parking Type": "Private - Large", "Size": "Large", "index_right": 0, "county_fips": 18073, "county_name": "Jasper County" }, "geometry": { "type": "Point", "coordinates": [ -87.15523592437313, 40.815646919380157 ] } },
{ "type": "Feature", "properties": { "name": "Jumpin Jacks", "truck_parking_spaces": 6, "amenities": "Truck Parking,Overnight Parking,Wi-Fi,With CAT Scales,With ATM,Transflo,RV dump,Fax Scan,Tire Care", "public_private": "Private", "parking_area_id": 95, "Parking Type": "Private - Small", "Size": "Small", "index_right": 61, "county_fips": 18147, "county_name": "Spencer County" }, "geometry": { "type": "Point", "coordinates": [ -87.108691381044594, 37.901057029870607 ] } },
{ "type": "Feature", "properties": { "name": "Pro Stop Service Centers", "truck_parking_spaces": 25, "amenities": "Truck Parking,Overnight Parking,Wi-Fi,With CAT Scales,With ATM,Transflo,RV dump,Fax Scan,Tire Care", "public_private": "Private", "parking_area_id": 98, "Parking Type": "Private - Small", "Size": "Small", "index_right": 51, "county_fips": 18019, "county_name": "Clark County" }, "geometry": { "type": "Point", "coordinates": [ -85.760335636995023, 38.369608183066084 ] } },
{ "type": "Feature", "properties": { "name": "Warren Sunshine Sunoco", "truck_parking_spaces": 10, "amenities": "Truck Parking,Overnight Parking", "public_private": "Private", "parking_area_id": 99, "Parking Type": "Private - Small", "Size": "Small", "index_right": 5, "county_fips": 18069, "county_name": "Huntington County" }, "geometry": { "type": "Point", "coordinates": [ -85.437038781051768, 40.717195553806214 ] } },
{ "type": "Feature", "properties": { "name": "EB 300 Parking Spots", "truck_parking_spaces": 200, "amenities": "Truck Parking,Overnight Parking", "public_private": "Public", "parking_area_id": 101, "Parking Type": "Public - Large", "Size": "Large", "index_right": 44, "county_fips": 18039, "county_name": "Elkhart County" }, "geometry": { "type": "Point", "coordinates": [ -85.6658654726658, 41.747846707138038 ] } },
{ "type": "Feature", "properties": { "name": "10 Parking space", "truck_parking_spaces": 8, "amenities": "Truck Parking,Overnight Parking", "public_private": "Private", "parking_area_id": 102, "Parking Type": "Private - Small", "Size": "Small", "index_right": 0, "county_fips": 18073, "county_name": "Jasper County" }, "geometry": { "type": "Point", "coordinates": [ -87.127353007110287, 40.765328905408026 ] } },
{ "type": "Feature", "properties": { "name": "McClure Truckstop", "truck_parking_spaces": 65, "amenities": "Truck Parking,Overnight Parking,With Showers,Wi-Fi,With ATM,Pet Friendly,Fax Scan,Tire Care", "public_private": "Private", "parking_area_id": 103, "Parking Type": "Private - Medium", "Size": "Medium", "index_right": 28, "county_fips": 18107, "county_name": "Montgomery County" }, "geometry": { "type": "Point", "coordinates": [ -86.901285613150932, 40.077185815465711 ] } },
{ "type": "Feature", "properties": { "name": "SB Lowell Weigh Station", "truck_parking_spaces": 40, "amenities": "Overnight Parking,Pre Pass", "public_private": "Public", "parking_area_id": 104, "Parking Type": "Public - Small", "Size": "Small", "index_right": 14, "county_fips": 18089, "county_name": "Lake County" }, "geometry": { "type": "Point", "coordinates": [ -87.302484887438382, 41.304729394449105 ] } },
{ "type": "Feature", "properties": { "name": "EB Terre Haute Weigh Station", "truck_parking_spaces": 20, "amenities": "Overnight Parking,Pre Pass", "public_private": "Public", "parking_area_id": 105, "Parking Type": "Public - Small", "Size": "Small", "index_right": 43, "county_fips": 18167, "county_name": "Vigo County" }, "geometry": { "type": "Point", "coordinates": [ -87.528693201748439, 39.436100652663256 ] } },
{ "type": "Feature", "properties": { "name": "Sprint Country Mark", "truck_parking_spaces": 15, "amenities": "Truck Parking,Overnight Parking,Wi-Fi,With CAT Scales,With ATM,Transflo,RV dump,Fax Scan,Tire Care", "public_private": "Private", "parking_area_id": 106, "Parking Type": "Private - Small", "Size": "Small", "index_right": 91, "county_fips": 18093, "county_name": "Lawrence County" }, "geometry": { "type": "Point", "coordinates": [ -86.493862872473883, 38.747522445242119 ] } },
{ "type": "Feature", "properties": { "name": "Melon Patch", "truck_parking_spaces": 20, "amenities": "Truck Parking,Overnight Parking,Wi-Fi,With ATM,Pet Friendly,Transflo,RV dump,Fax Scan,Tire Care", "public_private": "Private", "parking_area_id": 107, "Parking Type": "Private - Small", "Size": "Small", "index_right": 48, "county_fips": 18083, "county_name": "Knox County" }, "geometry": { "type": "Point", "coordinates": [ -87.445988944077513, 38.814067876870553 ] } },
{ "type": "Feature", "properties": { "name": "McClure Store #65", "truck_parking_spaces": 20, "amenities": "Truck Parking,Overnight Parking,Wi-Fi,With ATM,Pet Friendly,RV dump,Fax Scan", "public_private": "Private", "parking_area_id": 108, "Parking Type": "Private - Small", "Size": "Small", "index_right": 17, "county_fips": 18057, "county_name": "Hamilton County" }, "geometry": { "type": "Point", "coordinates": [ -86.127233666249666, 40.100858730826324 ] } },
{ "type": "Feature", "properties": { "name": "Love's Truck Care #601", "truck_parking_spaces": 89, "amenities": "Truck Parking,Overnight Parking,With Showers,Wi-Fi,With CAT Scales,With ATM,Pet Friendly,With Laundry,Transflo,RV dump,Bulk Def,Fax Scan", "public_private": "Private", "parking_area_id": 109, "Parking Type": "Private - Medium", "Size": "Medium", "index_right": 31, "county_fips": 18065, "county_name": "Henry County" }, "geometry": { "type": "Point", "coordinates": [ -85.558223357500609, 39.844482300225067 ] } },
{ "type": "Feature", "properties": { "name": "Thorntons #164", "truck_parking_spaces": 44, "amenities": "Truck Parking,Overnight Parking,With Showers,With CAT Scales,With ATM,Transflo,Bulk Def", "public_private": "Private", "parking_area_id": 111, "Parking Type": "Private - Small", "Size": "Small", "index_right": 51, "county_fips": 18019, "county_name": "Clark County" }, "geometry": { "type": "Point", "coordinates": [ -85.770547168944319, 38.488477133465288 ] } },
{ "type": "Feature", "properties": { "name": "CAT Scale", "truck_parking_spaces": 25, "amenities": "Overnight Parking,With CAT Scales", "public_private": "Private", "parking_area_id": 112, "Parking Type": "Private - Small", "Size": "Small", "index_right": 26, "county_fips": 18017, "county_name": "Cass County" }, "geometry": { "type": "Point", "coordinates": [ -86.348134845865147, 40.735617308011314 ] } },
{ "type": "Feature", "properties": { "name": "Hucks", "truck_parking_spaces": 10, "amenities": "Overnight Parking", "public_private": "Private", "parking_area_id": 115, "Parking Type": "Private - Small", "Size": "Small", "index_right": 36, "county_fips": 18163, "county_name": "Vanderburgh County" }, "geometry": { "type": "Point", "coordinates": [ -87.538902208059397, 37.998297162424436 ] } },
{ "type": "Feature", "properties": { "name": "Love's Truck Care #874", "truck_parking_spaces": 64, "amenities": "Truck Parking,Overnight Parking,With Showers,Wi-Fi,With CAT Scales,With ATM,Pet Friendly,With Laundry,Transflo,RV dump,Bulk Def,Fax Scan", "public_private": "Private", "parking_area_id": 117, "Parking Type": "Private - Medium", "Size": "Medium", "index_right": 15, "county_fips": 18157, "county_name": "Tippecanoe County" }, "geometry": { "type": "Point", "coordinates": [ -86.850044047621267, 40.451966698204728 ] } },
{ "type": "Feature", "properties": { "name": "Country Mark", "truck_parking_spaces": 10, "amenities": "Overnight Parking", "public_private": "Private", "parking_area_id": 119, "Parking Type": "Private - Small", "Size": "Small", "index_right": 3, "county_fips": 18123, "county_name": "Perry County" }, "geometry": { "type": "Point", "coordinates": [ -86.773291523067599, 37.981531504922629 ] } },
{ "type": "Feature", "properties": { "name": "Bourbon Travel Plaza", "truck_parking_spaces": 25, "amenities": "Truck Parking,Overnight Parking,With Showers,Wi-Fi,With ATM,Fax Scan", "public_private": "Private", "parking_area_id": 120, "Parking Type": "Private - Small", "Size": "Small", "index_right": 8, "county_fips": 18099, "county_name": "Marshall County" }, "geometry": { "type": "Point", "coordinates": [ -86.077109975606334, 41.293616857285294 ] } },
{ "type": "Feature", "properties": { "name": "Compass Travel Center", "truck_parking_spaces": 90, "amenities": "Truck Parking,Overnight Parking,With Showers,Wi-Fi,With ATM,Pet Friendly,With Laundry,Bulk Def,Fax Scan", "public_private": "Private", "parking_area_id": 121, "Parking Type": "Private - Medium", "Size": "Medium", "index_right": 0, "county_fips": 18073, "county_name": "Jasper County" }, "geometry": { "type": "Point", "coordinates": [ -87.269658942337472, 41.142873698154588 ] } },
{ "type": "Feature", "properties": { "name": "Love's Truck Care #233", "truck_parking_spaces": 50, "amenities": "Truck Parking,Overnight Parking,With Showers,Wi-Fi,With CAT Scales,With ATM,Pet Friendly,With Laundry,Transflo,RV dump,Bulk Def,Fax Scan", "public_private": "Private", "parking_area_id": 125, "Parking Type": "Private - Medium", "Size": "Medium", "index_right": 58, "county_fips": 18025, "county_name": "Crawford County" }, "geometry": { "type": "Point", "coordinates": [ -86.356823779966405, 38.244888999342571 ] } },
{ "type": "Feature", "properties": { "name": "Marathon", "truck_parking_spaces": 10, "amenities": "Truck Parking,Overnight Parking", "public_private": "Private", "parking_area_id": 126, "Parking Type": "Private - Small", "Size": "Small", "index_right": 83, "county_fips": 18097, "county_name": "Marion County" }, "geometry": { "type": "Point", "coordinates": [ -86.007189143506196, 39.717995464837848 ] } },
{ "type": "Feature", "properties": { "name": "Casey's - SHELBYVILLE #3905 - AMBEST", "truck_parking_spaces": 9, "amenities": "Truck Parking,Overnight Parking,With ATM", "public_private": "Private", "parking_area_id": 128, "Parking Type": "Private - Small", "Size": "Small", "index_right": 78, "county_fips": 18145, "county_name": "Shelby County" }, "geometry": { "type": "Point", "coordinates": [ -85.774334248504246, 39.548160982350041 ] } },
{ "type": "Feature", "properties": { "name": "Dirt Lot", "truck_parking_spaces": 9, "amenities": "Truck Parking,Overnight Parking", "public_private": "Public", "parking_area_id": 130, "Parking Type": "Public - Small", "Size": "Small", "index_right": 75, "county_fips": 18071, "county_name": "Jackson County" }, "geometry": { "type": "Point", "coordinates": [ -85.835217419977653, 38.958263945729527 ] } },
{ "type": "Feature", "properties": { "name": "HUCK'S", "truck_parking_spaces": 5, "amenities": "Truck Parking,Overnight Parking", "public_private": "Private", "parking_area_id": 131, "Parking Type": "Private - Small", "Size": "Small", "index_right": 70, "county_fips": 18027, "county_name": "Daviess County" }, "geometry": { "type": "Point", "coordinates": [ -87.133387661113375, 38.651957882659218 ] } },
{ "type": "Feature", "properties": { "name": "Parking", "truck_parking_spaces": 15, "amenities": "Truck Parking,Overnight Parking", "public_private": "Private", "parking_area_id": 132, "Parking Type": "Private - Small", "Size": "Small", "index_right": 24, "county_fips": 18047, "county_name": "Franklin County" }, "geometry": { "type": "Point", "coordinates": [ -85.012885986721386, 39.414085524866799 ] } },
{ "type": "Feature", "properties": { "name": "KFC with Parking", "truck_parking_spaces": 12, "amenities": "Truck Parking,Overnight Parking", "public_private": "Private", "parking_area_id": 134, "Parking Type": "Private - Small", "Size": "Small", "index_right": 0, "county_fips": 18073, "county_name": "Jasper County" }, "geometry": { "type": "Point", "coordinates": [ -87.213730459046076, 40.940091098100041 ] } },
{ "type": "Feature", "properties": { "name": "Gallops - Kendallville - AMBEST", "truck_parking_spaces": 50, "amenities": "Truck Parking,Overnight Parking,With Showers,Wi-Fi,With ATM,With Laundry,Bulk Def,Fax Scan", "public_private": "Private", "parking_area_id": 135, "Parking Type": "Private - Medium", "Size": "Medium", "index_right": 67, "county_fips": 18113, "county_name": "Noble County" }, "geometry": { "type": "Point", "coordinates": [ -85.285041022843586, 41.45089186019009 ] } },
{ "type": "Feature", "properties": { "name": "Getgo", "truck_parking_spaces": 8, "amenities": "Truck Parking,Overnight Parking,Wi-Fi,With ATM,Pet Friendly,Bulk Def", "public_private": "Private", "parking_area_id": 136, "Parking Type": "Private - Small", "Size": "Small", "index_right": 63, "county_fips": 18011, "county_name": "Boone County" }, "geometry": { "type": "Point", "coordinates": [ -86.385071912280537, 39.981299527846602 ] } },
{ "type": "Feature", "properties": { "name": "McMahon's Best-One", "truck_parking_spaces": 15, "amenities": "Truck Parking,Overnight Parking,Wi-Fi,Pet Friendly,Tire Care", "public_private": "Private", "parking_area_id": 137, "Parking Type": "Private - Small", "Size": "Small", "index_right": 7, "county_fips": 18003, "county_name": "Allen County" }, "geometry": { "type": "Point", "coordinates": [ -85.052804479495222, 41.070631553505706 ] } },
{ "type": "Feature", "properties": { "name": "Marathon Gas Station", "truck_parking_spaces": 15, "amenities": "Truck Parking,Overnight Parking", "public_private": "Private", "parking_area_id": 139, "Parking Type": "Private - Small", "Size": "Small", "index_right": 15, "county_fips": 18157, "county_name": "Tippecanoe County" }, "geometry": { "type": "Point", "coordinates": [ -86.845962958160243, 40.458231781243192 ] } },
{ "type": "Feature", "properties": { "name": "Love's Truck Care #600", "truck_parking_spaces": 100, "amenities": "Truck Parking,Overnight Parking,With Showers,Wi-Fi,With CAT Scales,With ATM,Pet Friendly,Transflo,Bulk Def,Fax Scan,Tire Care", "public_private": "Private", "parking_area_id": 140, "Parking Type": "Private - Large", "Size": "Large", "index_right": 81, "county_fips": 18095, "county_name": "Madison County" }, "geometry": { "type": "Point", "coordinates": [ -85.845582270402332, 39.992330838780646 ] } },
{ "type": "Feature", "properties": { "name": "Casey's - NORTH VERNON #3593", "truck_parking_spaces": 8, "amenities": "Truck Parking,Overnight Parking,Wi-Fi,With ATM,Pet Friendly", "public_private": "Private", "parking_area_id": 141, "Parking Type": "Private - Small", "Size": "Small", "index_right": 69, "county_fips": 18079, "county_name": "Jennings County" }, "geometry": { "type": "Point", "coordinates": [ -85.650094911715897, 39.023181719136403 ] } },
{ "type": "Feature", "properties": { "name": "Fast Eddie's", "truck_parking_spaces": 8, "amenities": "Truck Parking,Overnight Parking", "public_private": "Private", "parking_area_id": 142, "Parking Type": "Private - Small", "Size": "Small", "index_right": 9, "county_fips": 18117, "county_name": "Orange County" }, "geometry": { "type": "Point", "coordinates": [ -86.614373533954677, 38.560095333456196 ] } },
{ "type": "Feature", "properties": { "name": "Cock A Doodle Cafe", "truck_parking_spaces": 10, "amenities": "Truck Parking,Overnight Parking", "public_private": "Private", "parking_area_id": 143, "Parking Type": "Private - Small", "Size": "Small", "index_right": 44, "county_fips": 18039, "county_name": "Elkhart County" }, "geometry": { "type": "Point", "coordinates": [ -86.002749208275105, 41.663391955713877 ] } },
{ "type": "Feature", "properties": { "name": "Speedway #88738", "truck_parking_spaces": 10, "amenities": "Overnight Parking,Bulk Def", "public_private": "Private", "parking_area_id": 144, "Parking Type": "Private - Small", "Size": "Small", "index_right": 68, "county_fips": 18021, "county_name": "Clay County" }, "geometry": { "type": "Point", "coordinates": [ -87.12750877195738, 39.452009105512026 ] } },
{ "type": "Feature", "properties": { "name": "Love's Truck Care #592", "truck_parking_spaces": 60, "amenities": "Truck Parking,Overnight Parking,With Showers,Wi-Fi,With CAT Scales,With ATM,Pet Friendly,Transflo,Bulk Def,Fax Scan,Tire Care", "public_private": "Private", "parking_area_id": 145, "Parking Type": "Private - Medium", "Size": "Medium", "index_right": 7, "county_fips": 18003, "county_name": "Allen County" }, "geometry": { "type": "Point", "coordinates": [ -84.850991303769362, 41.140837930692442 ] } },
{ "type": "Feature", "properties": { "name": "Kentland Truck Stop", "truck_parking_spaces": 10, "amenities": "Truck Parking,Overnight Parking,With Showers,Wi-Fi,With ATM", "public_private": "Private", "parking_area_id": 146, "Parking Type": "Private - Small", "Size": "Small", "index_right": 10, "county_fips": 18111, "county_name": "Newton County" }, "geometry": { "type": "Point", "coordinates": [ -87.438481181421523, 40.761744122136498 ] } },
{ "type": "Feature", "properties": { "name": "BP", "truck_parking_spaces": 11, "amenities": "Truck Parking,Overnight Parking,With ATM", "public_private": "Private", "parking_area_id": 147, "Parking Type": "Private - Small", "Size": "Small", "index_right": 44, "county_fips": 18039, "county_name": "Elkhart County" }, "geometry": { "type": "Point", "coordinates": [ -85.706488198330248, 41.655148365183805 ] } },
{ "type": "Feature", "properties": { "name": "Speedway #83991", "truck_parking_spaces": 16, "amenities": "Overnight Parking,With ATM,Bulk Def", "public_private": "Private", "parking_area_id": 148, "Parking Type": "Private - Small", "Size": "Small", "index_right": 14, "county_fips": 18089, "county_name": "Lake County" }, "geometry": { "type": "Point", "coordinates": [ -87.354797315506758, 41.559946637806839 ] } },
{ "type": "Feature", "properties": { "name": "Mc Clure Oil", "truck_parking_spaces": 10, "amenities": "Truck Parking,Overnight Parking,With ATM", "public_private": "Private", "parking_area_id": 149, "Parking Type": "Private - Small", "Size": "Small", "index_right": 82, "county_fips": 18133, "county_name": "Putnam County" }, "geometry": { "type": "Point", "coordinates": [ -86.853416705998157, 39.633866390771139 ] } },
{ "type": "Feature", "properties": { "name": "Restaurant Parking", "truck_parking_spaces": 10, "amenities": "Truck Parking,Overnight Parking", "public_private": "Private", "parking_area_id": 150, "Parking Type": "Private - Small", "Size": "Small", "index_right": 30, "county_fips": 18165, "county_name": "Vermillion County" }, "geometry": { "type": "Point", "coordinates": [ -87.440395493317823, 39.911310361834545 ] } },
{ "type": "Feature", "properties": { "name": "McDonald's", "truck_parking_spaces": 30, "amenities": "Truck Parking,Overnight Parking", "public_private": "Private", "parking_area_id": 151, "Parking Type": "Private - Small", "Size": "Small", "index_right": 36, "county_fips": 18163, "county_name": "Vanderburgh County" }, "geometry": { "type": "Point", "coordinates": [ -87.552129563007455, 38.157988886544089 ] } },
{ "type": "Feature", "properties": { "name": "BP Parking", "truck_parking_spaces": 17, "amenities": "Truck Parking,Overnight Parking", "public_private": "Private", "parking_area_id": 152, "Parking Type": "Private - Small", "Size": "Small", "index_right": 80, "county_fips": 18103, "county_name": "Miami County" }, "geometry": { "type": "Point", "coordinates": [ -86.12880706438655, 40.642383186445528 ] } },
{ "type": "Feature", "properties": { "name": "Taco Bell", "truck_parking_spaces": 25, "amenities": "Truck Parking,Overnight Parking", "public_private": "Private", "parking_area_id": 153, "Parking Type": "Private - Small", "Size": "Small", "index_right": 53, "county_fips": 18053, "county_name": "Grant County" }, "geometry": { "type": "Point", "coordinates": [ -85.552766852944586, 40.480935006509583 ] } },
{ "type": "Feature", "properties": { "name": "Burger King", "truck_parking_spaces": 20, "amenities": "Truck Parking,Overnight Parking", "public_private": "Private", "parking_area_id": 154, "Parking Type": "Private - Small", "Size": "Small", "index_right": 53, "county_fips": 18053, "county_name": "Grant County" }, "geometry": { "type": "Point", "coordinates": [ -85.547016720740345, 40.479490205383414 ] } },
{ "type": "Feature", "properties": { "name": "Marathon Gas Station", "truck_parking_spaces": 15, "amenities": "Truck Parking,Overnight Parking,With ATM", "public_private": "Private", "parking_area_id": 155, "Parking Type": "Private - Small", "Size": "Small", "index_right": 53, "county_fips": 18053, "county_name": "Grant County" }, "geometry": { "type": "Point", "coordinates": [ -85.552440780612045, 40.479966387742813 ] } },
{ "type": "Feature", "properties": { "name": "Citgo", "truck_parking_spaces": 15, "amenities": "Truck Parking,Overnight Parking,With ATM", "public_private": "Private", "parking_area_id": 156, "Parking Type": "Private - Small", "Size": "Small", "index_right": 6, "county_fips": 18169, "county_name": "Wabash County" }, "geometry": { "type": "Point", "coordinates": [ -85.795433380393874, 40.999560247055783 ] } },
{ "type": "Feature", "properties": { "name": "BP", "truck_parking_spaces": 10, "amenities": "Truck Parking,Overnight Parking,With ATM", "public_private": "Private", "parking_area_id": 158, "Parking Type": "Private - Small", "Size": "Small", "index_right": 44, "county_fips": 18039, "county_name": "Elkhart County" }, "geometry": { "type": "Point", "coordinates": [ -85.785961347075656, 41.552370326009402 ] } },
{ "type": "Feature", "properties": { "name": "KFC", "truck_parking_spaces": 20, "amenities": "Truck Parking,Overnight Parking", "public_private": "Private", "parking_area_id": 159, "Parking Type": "Private - Small", "Size": "Small", "index_right": 51, "county_fips": 18019, "county_name": "Clark County" }, "geometry": { "type": "Point", "coordinates": [ -85.757543622555858, 38.371595727898452 ] } },
{ "type": "Feature", "properties": { "name": "HANKS TRUCK STOP", "truck_parking_spaces": 16, "amenities": "Truck Parking,Overnight Parking,With Showers,Wi-Fi,With ATM", "public_private": "Private", "parking_area_id": 160, "Parking Type": "Private - Small", "Size": "Small", "index_right": 16, "county_fips": 18091, "county_name": "LaPorte County" }, "geometry": { "type": "Point", "coordinates": [ -86.733599636618237, 41.405734988881534 ] } },
{ "type": "Feature", "properties": { "name": "PLAZA 30", "truck_parking_spaces": 15, "amenities": "Truck Parking,Overnight Parking,With Showers,With ATM,Tire Care", "public_private": "Private", "parking_area_id": 161, "Parking Type": "Private - Small", "Size": "Small", "index_right": 16, "county_fips": 18091, "county_name": "LaPorte County" }, "geometry": { "type": "Point", "coordinates": [ -86.821981874767147, 41.432784434100142 ] } },
{ "type": "Feature", "properties": { "name": "Love's Truck Care #633", "truck_parking_spaces": 59, "amenities": "Truck Parking,Overnight Parking,With Showers,Wi-Fi,With CAT Scales,With ATM,Pet Friendly,Transflo,Bulk Def,Fax Scan,Tire Care", "public_private": "Private", "parking_area_id": 162, "Parking Type": "Private - Medium", "Size": "Medium", "index_right": 8, "county_fips": 18099, "county_name": "Marshall County" }, "geometry": { "type": "Point", "coordinates": [ -86.350252451166995, 41.362113009108164 ] } },
{ "type": "Feature", "properties": { "name": "Speedway #86131", "truck_parking_spaces": 10, "amenities": "Overnight Parking,Wi-Fi,With CAT Scales,Transflo,RV dump,Bulk Def,Fax Scan,Tire Care", "public_private": "Private", "parking_area_id": 163, "Parking Type": "Private - Small", "Size": "Small", "index_right": 83, "county_fips": 18097, "county_name": "Marion County" }, "geometry": { "type": "Point", "coordinates": [ -86.064366021315877, 39.734107975266632 ] } },
{ "type": "Feature", "properties": { "name": "Trucks Only Parking Area WB", "truck_parking_spaces": 100, "amenities": "Truck Parking,Overnight Parking", "public_private": "Public", "parking_area_id": 164, "Parking Type": "Public - Large", "Size": "Large", "index_right": 16, "county_fips": 18091, "county_name": "LaPorte County" }, "geometry": { "type": "Point", "coordinates": [ -86.92505987147203, 41.587190968951859 ] } },
{ "type": "Feature", "properties": { "name": "Truck Parking Lot East Bound", "truck_parking_spaces": 250, "amenities": "Truck Parking,Overnight Parking", "public_private": "Public", "parking_area_id": 165, "Parking Type": "Public - Large", "Size": "Large", "index_right": 16, "county_fips": 18091, "county_name": "LaPorte County" }, "geometry": { "type": "Point", "coordinates": [ -86.926159242112746, 41.585189008591371 ] } },
{ "type": "Feature", "properties": { "name": "SB Warren Weigh Station", "truck_parking_spaces": 10, "amenities": "Overnight Parking,Pre Pass", "public_private": "Public", "parking_area_id": 166, "Parking Type": "Public - Small", "Size": "Small", "index_right": 5, "county_fips": 18069, "county_name": "Huntington County" }, "geometry": { "type": "Point", "coordinates": [ -85.408901499224825, 40.747147660702709 ] } },
{ "type": "Feature", "properties": { "name": "WB 200 Parking Spots", "truck_parking_spaces": 200, "amenities": "Truck Parking,Overnight Parking", "public_private": "Public", "parking_area_id": 167, "Parking Type": "Public - Large", "Size": "Large", "index_right": 44, "county_fips": 18039, "county_name": "Elkhart County" }, "geometry": { "type": "Point", "coordinates": [ -85.666767323724997, 41.749685681579287 ] } },
{ "type": "Feature", "properties": { "name": "I 69;US 35", "truck_parking_spaces": 77, "amenities": "Truck Parking,Overnight Parking", "public_private": "Public", "parking_area_id": 168, "Parking Type": "Public - Medium", "Size": "Medium", "index_right": 60, "county_fips": 18035, "county_name": "Delaware County" }, "geometry": { "type": "Point", "coordinates": [ -85.560692345699493, 40.356798434746089 ] } },
{ "type": "Feature", "properties": { "name": "I 65", "truck_parking_spaces": 39, "amenities": "Truck Parking,Overnight Parking", "public_private": "Public", "parking_area_id": 169, "Parking Type": "Public - Small", "Size": "Small", "index_right": 25, "county_fips": 18005, "county_name": "Bartholomew County" }, "geometry": { "type": "Point", "coordinates": [ -85.9528297800085, 39.25992516372132 ] } },
{ "type": "Feature", "properties": { "name": "TA", "truck_parking_spaces": 100, "amenities": "Truck Parking,Overnight Parking", "public_private": "Private", "parking_area_id": 171, "Parking Type": "Private - Large", "Size": "Large", "index_right": 90, "county_fips": 18063, "county_name": "Hendricks County" }, "geometry": { "type": "Point", "coordinates": [ -86.480964092823513, 39.61110752342924 ] } },
{ "type": "Feature", "properties": { "name": "Gallahan Travel Plaza", "truck_parking_spaces": 80, "amenities": "Truck Parking,Overnight Parking", "public_private": "Private", "parking_area_id": 172, "Parking Type": "Private - Medium", "Size": "Medium", "index_right": 80, "county_fips": 18103, "county_name": "Miami County" }, "geometry": { "type": "Point", "coordinates": [ -86.127979810040273, 40.779481483592761 ] } },
{ "type": "Feature", "properties": { "name": "1198 East County Road 1650 North", "truck_parking_spaces": 40, "amenities": "Truck Parking,Overnight Parking", "public_private": "Private", "parking_area_id": 173, "Parking Type": "Private - Small", "Size": "Small", "index_right": 30, "county_fips": 18165, "county_name": "Vermillion County" }, "geometry": { "type": "Point", "coordinates": [ -87.450353486614915, 40.122919739596043 ] } },
{ "type": "Feature", "properties": { "name": "Cracklin Shack", "truck_parking_spaces": 10, "amenities": "Truck Parking,Overnight Parking", "public_private": "Private", "parking_area_id": 175, "Parking Type": "Private - Small", "Size": "Small", "index_right": 53, "county_fips": 18053, "county_name": "Grant County" }, "geometry": { "type": "Point", "coordinates": [ -85.82571364199147, 40.478258962672946 ] } },
{ "type": "Feature", "properties": { "name": "Road Ranger", "truck_parking_spaces": 18, "amenities": "Truck Parking,Overnight Parking", "public_private": "Private", "parking_area_id": 176, "Parking Type": "Private - Small", "Size": "Small", "index_right": 68, "county_fips": 18021, "county_name": "Clay County" }, "geometry": { "type": "Point", "coordinates": [ -87.125602283012654, 39.446820943011915 ] } },
{ "type": "Feature", "properties": { "name": "SR 66", "truck_parking_spaces": 25, "amenities": "Truck Parking,Overnight Parking", "public_private": "Private", "parking_area_id": 177, "Parking Type": "Private - Small", "Size": "Small", "index_right": 58, "county_fips": 18025, "county_name": "Crawford County" }, "geometry": { "type": "Point", "coordinates": [ -86.362447668173544, 38.239437681224032 ] } },
{ "type": "Feature", "properties": { "name": "Road Ranger", "truck_parking_spaces": 150, "amenities": "Truck Parking,Overnight Parking", "public_private": "Private", "parking_area_id": 179, "Parking Type": "Private - Large", "Size": "Large", "index_right": 37, "county_fips": 18081, "county_name": "Johnson County" }, "geometry": { "type": "Point", "coordinates": [ -86.07074729098926, 39.613122127163983 ] } },
{ "type": "Feature", "properties": { "name": "West Raymond Street", "truck_parking_spaces": 10, "amenities": "Truck Parking,Overnight Parking", "public_private": "Private", "parking_area_id": 180, "Parking Type": "Private - Small", "Size": "Small", "index_right": 83, "county_fips": 18097, "county_name": "Marion County" }, "geometry": { "type": "Point", "coordinates": [ -86.199042803566556, 39.735909833220781 ] } },
{ "type": "Feature", "properties": { "name": "5060 South Victor Pike", "truck_parking_spaces": 18, "amenities": "Truck Parking,Overnight Parking", "public_private": "Private", "parking_area_id": 181, "Parking Type": "Private - Small", "Size": "Small", "index_right": 79, "county_fips": 18105, "county_name": "Monroe County" }, "geometry": { "type": "Point", "coordinates": [ -86.551195970266278, 39.107018053464664 ] } },
{ "type": "Feature", "properties": { "name": "7913 SR 28", "truck_parking_spaces": 50, "amenities": "Truck Parking,Overnight Parking", "public_private": "Private", "parking_area_id": 182, "Parking Type": "Private - Medium", "Size": "Medium", "index_right": 39, "county_fips": 18023, "county_name": "Clinton County" }, "geometry": { "type": "Point", "coordinates": [ -86.651377025255968, 40.261499425327486 ] } },
{ "type": "Feature", "properties": { "name": "Indianapolis Boulevard", "truck_parking_spaces": 10, "amenities": "Truck Parking,Overnight Parking", "public_private": "Private", "parking_area_id": 183, "Parking Type": "Private - Small", "Size": "Small", "index_right": 14, "county_fips": 18089, "county_name": "Lake County" }, "geometry": { "type": "Point", "coordinates": [ -87.472758681436446, 41.567404229131654 ] } },
{ "type": "Feature", "properties": { "name": "Road Ranger", "truck_parking_spaces": 10, "amenities": "Truck Parking,Overnight Parking", "public_private": "Private", "parking_area_id": 184, "Parking Type": "Private - Small", "Size": "Small", "index_right": 14, "county_fips": 18089, "county_name": "Lake County" }, "geometry": { "type": "Point", "coordinates": [ -87.239403538491729, 41.578815268973926 ] } },
{ "type": "Feature", "properties": { "name": "Mr. Fuel", "truck_parking_spaces": 15, "amenities": "Truck Parking,Overnight Parking", "public_private": "Private", "parking_area_id": 185, "Parking Type": "Private - Small", "Size": "Small", "index_right": 14, "county_fips": 18089, "county_name": "Lake County" }, "geometry": { "type": "Point", "coordinates": [ -87.402487923385351, 41.56548219839469 ] } },
{ "type": "Feature", "properties": { "name": "Mr. Fuel Travel Center", "truck_parking_spaces": 6, "amenities": "Truck Parking,Overnight Parking", "public_private": "Private", "parking_area_id": 186, "Parking Type": "Private - Small", "Size": "Small", "index_right": 14, "county_fips": 18089, "county_name": "Lake County" }, "geometry": { "type": "Point", "coordinates": [ -87.239368515035295, 41.588414314466227 ] } },
{ "type": "Feature", "properties": { "name": "9209 Frontage Road", "truck_parking_spaces": 30, "amenities": "Truck Parking,Overnight Parking", "public_private": "Private", "parking_area_id": 187, "Parking Type": "Private - Small", "Size": "Small", "index_right": 60, "county_fips": 18035, "county_name": "Delaware County" }, "geometry": { "type": "Point", "coordinates": [ -85.566112500276773, 40.112915992749095 ] } },
{ "type": "Feature", "properties": { "name": "Pilot Travel Center", "truck_parking_spaces": 40, "amenities": "Truck Parking,Overnight Parking", "public_private": "Private", "parking_area_id": 188, "Parking Type": "Private - Small", "Size": "Small", "index_right": 31, "county_fips": 18065, "county_name": "Henry County" }, "geometry": { "type": "Point", "coordinates": [ -85.417583589516681, 39.850772813143656 ] } },
{ "type": "Feature", "properties": { "name": "71999 SR 15", "truck_parking_spaces": 15, "amenities": "Truck Parking,Overnight Parking", "public_private": "Private", "parking_area_id": 189, "Parking Type": "Private - Small", "Size": "Small", "index_right": 44, "county_fips": 18039, "county_name": "Elkhart County" }, "geometry": { "type": "Point", "coordinates": [ -85.845237282865355, 41.448619042007742 ] } },
{ "type": "Feature", "properties": { "name": "Mr. Fuel Travel Center", "truck_parking_spaces": 38, "amenities": "Truck Parking,Overnight Parking", "public_private": "Private", "parking_area_id": 190, "Parking Type": "Private - Small", "Size": "Small", "index_right": 83, "county_fips": 18097, "county_name": "Marion County" }, "geometry": { "type": "Point", "coordinates": [ -86.18817995512245, 39.69732413686549 ] } },
{ "type": "Feature", "properties": { "name": "US 20", "truck_parking_spaces": 40, "amenities": "Truck Parking,Overnight Parking", "public_private": "Private", "parking_area_id": 191, "Parking Type": "Private - Small", "Size": "Small", "index_right": 44, "county_fips": 18039, "county_name": "Elkhart County" }, "geometry": { "type": "Point", "coordinates": [ -85.819197083431817, 41.668104230456642 ] } },
{ "type": "Feature", "properties": { "name": "Pilot Travel Center", "truck_parking_spaces": 36, "amenities": "Truck Parking,Overnight Parking", "public_private": "Private", "parking_area_id": 192, "Parking Type": "Private - Small", "Size": "Small", "index_right": 8, "county_fips": 18099, "county_name": "Marshall County" }, "geometry": { "type": "Point", "coordinates": [ -86.264335151745513, 41.341423608452516 ] } },
{ "type": "Feature", "properties": { "name": "Pilot Travel Center", "truck_parking_spaces": 48, "amenities": "Truck Parking,Overnight Parking", "public_private": "Private", "parking_area_id": 194, "Parking Type": "Private - Small", "Size": "Small", "index_right": 51, "county_fips": 18019, "county_name": "Clark County" }, "geometry": { "type": "Point", "coordinates": [ -85.772797028533475, 38.492515656387788 ] } },
{ "type": "Feature", "properties": { "name": "Love's Travel Stop", "truck_parking_spaces": 60, "amenities": "Truck Parking,Overnight Parking", "public_private": "Private", "parking_area_id": 195, "Parking Type": "Private - Medium", "Size": "Medium", "index_right": 29, "county_fips": 18051, "county_name": "Gibson County" }, "geometry": { "type": "Point", "coordinates": [ -87.551438637202125, 38.172687000997136 ] } },
{ "type": "Feature", "properties": { "name": "4369 SR 32", "truck_parking_spaces": 38, "amenities": "Truck Parking,Overnight Parking", "public_private": "Private", "parking_area_id": 196, "Parking Type": "Private - Small", "Size": "Small", "index_right": 28, "county_fips": 18107, "county_name": "Montgomery County" }, "geometry": { "type": "Point", "coordinates": [ -86.820503284265413, 40.045995216213768 ] } },
{ "type": "Feature", "properties": { "name": "Pilot Travel Center", "truck_parking_spaces": 50, "amenities": "Truck Parking,Overnight Parking", "public_private": "Private", "parking_area_id": 197, "Parking Type": "Private - Medium", "Size": "Medium", "index_right": 54, "county_fips": 18141, "county_name": "St. Joseph County" }, "geometry": { "type": "Point", "coordinates": [ -86.336523150230988, 41.735327068712969 ] } },
{ "type": "Feature", "properties": { "name": "Dean's Fireworks", "truck_parking_spaces": 30, "amenities": "Truck Parking,Overnight Parking", "public_private": "Private", "parking_area_id": 198, "Parking Type": "Private - Small", "Size": "Small", "index_right": 43, "county_fips": 18167, "county_name": "Vigo County" }, "geometry": { "type": "Point", "coordinates": [ -87.331972827041739, 39.433072606967549 ] } },
{ "type": "Feature", "properties": { "name": "Pilot Travel Center", "truck_parking_spaces": 70, "amenities": "Truck Parking,Overnight Parking", "public_private": "Private", "parking_area_id": 199, "Parking Type": "Private - Medium", "Size": "Medium", "index_right": 78, "county_fips": 18145, "county_name": "Shelby County" }, "geometry": { "type": "Point", "coordinates": [ -85.817799881178942, 39.583339278944493 ] } },
{ "type": "Feature", "properties": { "name": "Subway", "truck_parking_spaces": 20, "amenities": "Truck Parking,Overnight Parking", "public_private": "Private", "parking_area_id": 200, "Parking Type": "Private - Small", "Size": "Small", "index_right": 33, "county_fips": 18127, "county_name": "Porter County" }, "geometry": { "type": "Point", "coordinates": [ -87.010670248213785, 41.448428371334614 ] } },
{ "type": "Feature", "properties": { "name": "Pilot Travel Center", "truck_parking_spaces": 70, "amenities": "Truck Parking,Overnight Parking", "public_private": "Private", "parking_area_id": 201, "Parking Type": "Private - Medium", "Size": "Medium", "index_right": 0, "county_fips": 18073, "county_name": "Jasper County" }, "geometry": { "type": "Point", "coordinates": [ -87.123198513119974, 40.767019921522632 ] } },
{ "type": "Feature", "properties": { "name": "South Doyle Road", "truck_parking_spaces": 80, "amenities": "Truck Parking,Overnight Parking", "public_private": "Private", "parking_area_id": 202, "Parking Type": "Private - Medium", "Size": "Medium", "index_right": 7, "county_fips": 18003, "county_name": "Allen County" }, "geometry": { "type": "Point", "coordinates": [ -84.980005154273044, 41.058915464171655 ] } },
{ "type": "Feature", "properties": { "name": "Love's Travel Stop", "truck_parking_spaces": 60, "amenities": "Truck Parking,Overnight Parking", "public_private": "Private", "parking_area_id": 203, "Parking Type": "Private - Medium", "Size": "Medium", "index_right": 90, "county_fips": 18063, "county_name": "Hendricks County" }, "geometry": { "type": "Point", "coordinates": [ -86.474667804079573, 39.877296104916979 ] } },
{ "type": "Feature", "properties": { "name": "Nancy Hanks Rest Area (Westbound)", "truck_parking_spaces": 17, "amenities": "Truck Parking,Overnight Parking", "public_private": "Public", "parking_area_id": 204, "Parking Type": "Public - Small", "Size": "Small", "index_right": 61, "county_fips": 18147, "county_name": "Spencer County" }, "geometry": { "type": "Point", "coordinates": [ -86.948100507359314, 38.197049944770988 ] } },
{ "type": "Feature", "properties": { "name": "I 65", "truck_parking_spaces": 64, "amenities": "Truck Parking,Overnight Parking", "public_private": "Public", "parking_area_id": 206, "Parking Type": "Public - Medium", "Size": "Medium", "index_right": 51, "county_fips": 18019, "county_name": "Clark County" }, "geometry": { "type": "Point", "coordinates": [ -85.781152328995901, 38.586177628843345 ] } },
{ "type": "Feature", "properties": { "name": "County Road 250 West", "truck_parking_spaces": 44, "amenities": "Truck Parking,Overnight Parking", "public_private": "Public", "parking_area_id": 207, "Parking Type": "Public - Small", "Size": "Small", "index_right": 25, "county_fips": 18005, "county_name": "Bartholomew County" }, "geometry": { "type": "Point", "coordinates": [ -85.95669149206573, 39.277175560278096 ] } },
{ "type": "Feature", "properties": { "name": "Plainfield Rest Area (Eastbound)", "truck_parking_spaces": 30, "amenities": "Truck Parking,Overnight Parking", "public_private": "Public", "parking_area_id": 208, "Parking Type": "Public - Small", "Size": "Small", "index_right": 90, "county_fips": 18063, "county_name": "Hendricks County" }, "geometry": { "type": "Point", "coordinates": [ -86.397637787485365, 39.651291845926387 ] } },
{ "type": "Feature", "properties": { "name": "Plainfield Rest Area (Wesbound)", "truck_parking_spaces": 30, "amenities": "Truck Parking,Overnight Parking", "public_private": "Public", "parking_area_id": 209, "Parking Type": "Public - Small", "Size": "Small", "index_right": 90, "county_fips": 18063, "county_name": "Hendricks County" }, "geometry": { "type": "Point", "coordinates": [ -86.400472804659529, 39.654603429483913 ] } },
{ "type": "Feature", "properties": { "name": "I 65", "truck_parking_spaces": 85, "amenities": "Truck Parking,Overnight Parking", "public_private": "Public", "parking_area_id": 211, "Parking Type": "Public - Medium", "Size": "Medium", "index_right": 0, "county_fips": 18073, "county_name": "Jasper County" }, "geometry": { "type": "Point", "coordinates": [ -87.271367194312518, 41.16478326815632 ] } },
{ "type": "Feature", "properties": { "name": "Pilot Travel Center", "truck_parking_spaces": 80, "amenities": "Truck Parking,Overnight Parking", "public_private": "Private", "parking_area_id": 212, "Parking Type": "Private - Medium", "Size": "Medium", "index_right": 14, "county_fips": 18089, "county_name": "Lake County" }, "geometry": { "type": "Point", "coordinates": [ -87.294769283237798, 41.290509922589202 ] } },
{ "type": "Feature", "properties": { "name": "TA", "truck_parking_spaces": 120, "amenities": "Truck Parking,Overnight Parking", "public_private": "Private", "parking_area_id": 213, "Parking Type": "Private - Large", "Size": "Large", "index_right": 63, "county_fips": 18011, "county_name": "Boone County" }, "geometry": { "type": "Point", "coordinates": [ -86.357500429595433, 39.947909394925119 ] } },
{ "type": "Feature", "properties": { "name": "TA", "truck_parking_spaces": 160, "amenities": "Truck Parking,Overnight Parking", "public_private": "Private", "parking_area_id": 214, "Parking Type": "Private - Large", "Size": "Large", "index_right": 75, "county_fips": 18071, "county_name": "Jackson County" }, "geometry": { "type": "Point", "coordinates": [ -85.83650609423988, 38.956787165370258 ] } },
{ "type": "Feature", "properties": { "name": "TA", "truck_parking_spaces": 160, "amenities": "Truck Parking,Overnight Parking", "public_private": "Private", "parking_area_id": 215, "Parking Type": "Private - Large", "Size": "Large", "index_right": 14, "county_fips": 18089, "county_name": "Lake County" }, "geometry": { "type": "Point", "coordinates": [ -87.238530533339883, 41.59019757859285 ] } },
{ "type": "Feature", "properties": { "name": "Petro Stopping Centers", "truck_parking_spaces": 120, "amenities": "Truck Parking,Overnight Parking", "public_private": "Private", "parking_area_id": 216, "Parking Type": "Private - Large", "Size": "Large", "index_right": 1, "county_fips": 18151, "county_name": "Steuben County" }, "geometry": { "type": "Point", "coordinates": [ -84.992025347189838, 41.748210656743659 ] } },
{ "type": "Feature", "properties": { "name": "TA", "truck_parking_spaces": 120, "amenities": "Truck Parking,Overnight Parking", "public_private": "Private", "parking_area_id": 217, "Parking Type": "Private - Large", "Size": "Large", "index_right": 33, "county_fips": 18127, "county_name": "Porter County" }, "geometry": { "type": "Point", "coordinates": [ -87.099061079884251, 41.613558520373729 ] } },
{ "type": "Feature", "properties": { "name": "Flying J Travel Center", "truck_parking_spaces": 140, "amenities": "Truck Parking,Overnight Parking", "public_private": "Private", "parking_area_id": 218, "Parking Type": "Private - Large", "Size": "Large", "index_right": 31, "county_fips": 18065, "county_name": "Henry County" }, "geometry": { "type": "Point", "coordinates": [ -85.412241396400105, 39.851167880140132 ] } },
{ "type": "Feature", "properties": { "name": "Flying J Travel Center", "truck_parking_spaces": 140, "amenities": "Truck Parking,Overnight Parking", "public_private": "Private", "parking_area_id": 219, "Parking Type": "Private - Large", "Size": "Large", "index_right": 63, "county_fips": 18011, "county_name": "Boone County" }, "geometry": { "type": "Point", "coordinates": [ -86.473740308393275, 40.033054981525908 ] } },
{ "type": "Feature", "properties": { "name": "Pilot Travel Center", "truck_parking_spaces": 100, "amenities": "Truck Parking,Overnight Parking", "public_private": "Private", "parking_area_id": 220, "Parking Type": "Private - Large", "Size": "Large", "index_right": 33, "county_fips": 18127, "county_name": "Porter County" }, "geometry": { "type": "Point", "coordinates": [ -87.115410997397262, 41.604840554718187 ] } },
{ "type": "Feature", "properties": { "name": "Flying J Travel Center", "truck_parking_spaces": 200, "amenities": "Truck Parking,Overnight Parking", "public_private": "Private", "parking_area_id": 221, "Parking Type": "Private - Large", "Size": "Large", "index_right": 37, "county_fips": 18081, "county_name": "Johnson County" }, "geometry": { "type": "Point", "coordinates": [ -86.037627852701391, 39.548823084922212 ] } },
{ "type": "Feature", "properties": { "name": "TA", "truck_parking_spaces": 12, "amenities": "Truck Parking,Overnight Parking", "public_private": "Private", "parking_area_id": 222, "Parking Type": "Private - Small", "Size": "Small", "index_right": 33, "county_fips": 18127, "county_name": "Porter County" }, "geometry": { "type": "Point", "coordinates": [ -87.09590479400461, 41.612531818905481 ] } },
{ "type": "Feature", "properties": { "name": "TA", "truck_parking_spaces": 260, "amenities": "Truck Parking,Overnight Parking", "public_private": "Private", "parking_area_id": 223, "Parking Type": "Private - Large", "Size": "Large", "index_right": 14, "county_fips": 18089, "county_name": "Lake County" }, "geometry": { "type": "Point", "coordinates": [ -87.40566751620436, 41.571799412902593 ] } },
{ "type": "Feature", "properties": { "name": "Petro Stopping Centers", "truck_parking_spaces": 300, "amenities": "Truck Parking,Overnight Parking", "public_private": "Private", "parking_area_id": 224, "Parking Type": "Private - Large", "Size": "Large", "index_right": 14, "county_fips": 18089, "county_name": "Lake County" }, "geometry": { "type": "Point", "coordinates": [ -87.353896302720969, 41.562138859249607 ] } },
{ "type": "Feature", "properties": { "name": "Petro Stopping Centers", "truck_parking_spaces": 80, "amenities": "Truck Parking,Overnight Parking", "public_private": "Private", "parking_area_id": 225, "Parking Type": "Private - Medium", "Size": "Medium", "index_right": 68, "county_fips": 18021, "county_name": "Clay County" }, "geometry": { "type": "Point", "coordinates": [ -87.127751570542927, 39.444922012497798 ] } },
{ "type": "Feature", "properties": { "name": "Pilot Travel Center", "truck_parking_spaces": 60, "amenities": "Truck Parking,Overnight Parking", "public_private": "Private", "parking_area_id": 226, "Parking Type": "Private - Medium", "Size": "Medium", "index_right": 1, "county_fips": 18151, "county_name": "Steuben County" }, "geometry": { "type": "Point", "coordinates": [ -84.999628974124263, 41.743886115852639 ] } },
{ "type": "Feature", "properties": { "name": "Love's Travel Stop", "truck_parking_spaces": 50, "amenities": "Truck Parking,Overnight Parking", "public_private": "Private", "parking_area_id": 227, "Parking Type": "Private - Medium", "Size": "Medium", "index_right": 37, "county_fips": 18081, "county_name": "Johnson County" }, "geometry": { "type": "Point", "coordinates": [ -86.044578586836508, 39.552963545331529 ] } },
{ "type": "Feature", "properties": { "name": "Pilot Travel Center", "truck_parking_spaces": 50, "amenities": "Truck Parking,Overnight Parking", "public_private": "Private", "parking_area_id": 228, "Parking Type": "Private - Medium", "Size": "Medium", "index_right": 68, "county_fips": 18021, "county_name": "Clay County" }, "geometry": { "type": "Point", "coordinates": [ -87.124727871636694, 39.451278118812546 ] } },
{ "type": "Feature", "properties": { "name": "Pilot Travel Center", "truck_parking_spaces": 120, "amenities": "Truck Parking,Overnight Parking", "public_private": "Private", "parking_area_id": 229, "Parking Type": "Private - Large", "Size": "Large", "index_right": 37, "county_fips": 18081, "county_name": "Johnson County" }, "geometry": { "type": "Point", "coordinates": [ -86.046395874764812, 39.552091872986182 ] } },
{ "type": "Feature", "properties": { "name": "8356 Old South US Hwy 41", "truck_parking_spaces": 20, "amenities": "Truck Parking,Overnight Parking", "public_private": "Private", "parking_area_id": 230, "Parking Type": "Private - Small", "Size": "Small", "index_right": 65, "county_fips": 18153, "county_name": "Sullivan County" }, "geometry": { "type": "Point", "coordinates": [ -87.40639921121651, 38.954783970062579 ] } },
{ "type": "Feature", "properties": { "name": "Pilot Travel Center", "truck_parking_spaces": 50, "amenities": "Truck Parking,Overnight Parking", "public_private": "Private", "parking_area_id": 231, "Parking Type": "Private - Medium", "Size": "Medium", "index_right": 60, "county_fips": 18035, "county_name": "Delaware County" }, "geometry": { "type": "Point", "coordinates": [ -85.573387273671571, 40.114979874863785 ] } },
{ "type": "Feature", "properties": { "name": "Pilot Travel Center", "truck_parking_spaces": 60, "amenities": "Truck Parking,Overnight Parking", "public_private": "Private", "parking_area_id": 232, "Parking Type": "Private - Medium", "Size": "Medium", "index_right": 29, "county_fips": 18051, "county_name": "Gibson County" }, "geometry": { "type": "Point", "coordinates": [ -87.54855201336872, 38.174972012744355 ] } },
{ "type": "Feature", "properties": { "name": "TA", "truck_parking_spaces": 70, "amenities": "Truck Parking,Overnight Parking", "public_private": "Private", "parking_area_id": 233, "Parking Type": "Private - Medium", "Size": "Medium", "index_right": 0, "county_fips": 18073, "county_name": "Jasper County" }, "geometry": { "type": "Point", "coordinates": [ -87.260714501985248, 41.145397150387097 ] } },
{ "type": "Feature", "properties": { "name": "Petro Stopping Centers", "truck_parking_spaces": 80, "amenities": "Truck Parking,Overnight Parking", "public_private": "Private", "parking_area_id": 234, "Parking Type": "Private - Medium", "Size": "Medium", "index_right": 19, "county_fips": 18031, "county_name": "Decatur County" }, "geometry": { "type": "Point", "coordinates": [ -85.328214292157881, 39.318217791339613 ] } },
{ "type": "Feature", "properties": { "name": "Petro Stopping Centers", "truck_parking_spaces": 120, "amenities": "Truck Parking,Overnight Parking", "public_private": "Private", "parking_area_id": 235, "Parking Type": "Private - Large", "Size": "Large", "index_right": 60, "county_fips": 18035, "county_name": "Delaware County" }, "geometry": { "type": "Point", "coordinates": [ -85.551812566213059, 40.277501577162248 ] } },
{ "type": "Feature", "properties": { "name": "Pilot Travel Center", "truck_parking_spaces": 80, "amenities": "Truck Parking,Overnight Parking", "public_private": "Private", "parking_area_id": 236, "Parking Type": "Private - Medium", "Size": "Medium", "index_right": 40, "county_fips": 18059, "county_name": "Hancock County" }, "geometry": { "type": "Point", "coordinates": [ -85.916974492947162, 39.821014278931351 ] } },
{ "type": "Feature", "properties": { "name": "Petro Stopping Centers", "truck_parking_spaces": 180, "amenities": "Truck Parking,Overnight Parking", "public_private": "Private", "parking_area_id": 237, "Parking Type": "Private - Large", "Size": "Large", "index_right": 0, "county_fips": 18073, "county_name": "Jasper County" }, "geometry": { "type": "Point", "coordinates": [ -87.125589368243141, 40.767389933210765 ] } },
{ "type": "Feature", "properties": { "name": "Pilot Travel Center", "truck_parking_spaces": 90, "amenities": "Truck Parking,Overnight Parking", "public_private": "Private", "parking_area_id": 238, "Parking Type": "Private - Medium", "Size": "Medium", "index_right": 14, "county_fips": 18089, "county_name": "Lake County" }, "geometry": { "type": "Point", "coordinates": [ -87.40176215747465, 41.572634688217008 ] } },
{ "type": "Feature", "properties": { "name": "Flying J Travel Center", "truck_parking_spaces": 100, "amenities": "Truck Parking,Overnight Parking", "public_private": "Private", "parking_area_id": 239, "Parking Type": "Private - Large", "Size": "Large", "index_right": 29, "county_fips": 18051, "county_name": "Gibson County" }, "geometry": { "type": "Point", "coordinates": [ -87.552755814163802, 38.17532342039916 ] } },
{ "type": "Feature", "properties": { "name": "truck parking", "truck_parking_spaces": 60, "amenities": "Truck Parking,Overnight Parking", "public_private": "Public", "parking_area_id": 240, "Parking Type": "Public - Medium", "Size": "Medium", "index_right": 44, "county_fips": 18039, "county_name": "Elkhart County" }, "geometry": { "type": "Point", "coordinates": [ -86.004867303427119, 41.733068030647786 ] } },
{ "type": "Feature", "properties": { "name": "Nancy Hanks Rest Area (Eastbound)", "truck_parking_spaces": 17, "amenities": null, "public_private": "Public", "parking_area_id": 241, "Parking Type": "Public - Small", "Size": "Small", "index_right": 61, "county_fips": 18147, "county_name": "Spencer County" }, "geometry": { "type": "Point", "coordinates": [ -86.948615351404811, 38.194396097497702 ] } }
]
}
